satname,norad_id,inclination_deg,eccentricity,mean_motion_rev_per_day,perigee_km,apogee_km,l1,l2
STARLINK-1008,44714,53.1524,0.000261,15.51083081,411.7899498773286,415.33521705989915,1 44714U 19074B   26176.81894446  .00062205  00000+0  10496-2 0  9993,2 44714  53.1524  27.3694 0002610 186.3978 173.6999 15.51083081365554
STARLINK-1012,44718,53.1558,0.0002001,15.51433881,411.1799344453184,413.8975628799335,1 44718U 19074F   26176.81347369  .00061738  00000+0  10290-2 0  9996,2 44718  53.1558  27.6508 0002001 199.9226 160.1706 15.51433881365545
STARLINK-1017,44723,53.0482,0.0004098,15.32722689,464.8876865860857,470.4985289424085,1 44723U 19074L   26176.81395171  .00032269  00000+0  10140-2 0  9997,2 44723  53.0482  29.1352 0004098  89.0670 271.0800 15.32722689365509
STARLINK-1020,44725,53.1564,0.0003339,15.5699797,394.0889871342606,398.61299021309605,1 44725U 19074N   26176.83793891  .00064995  00000+0  88381-3 0  9996,2 44725  53.1564  50.8938 0003339 152.8970 207.2217 15.56997970365206
STARLINK-1036,44741,53.0421,9.09e-05,15.7469014,344.9018888263781,346.1242484088525,1 44741U 19074AE  26176.91668980 -.00003389  00000+0 -18417-4 0  9999,2 44741  53.0421  17.3560 0000909  78.7790 258.3217 15.74690140  5971
STARLINK-1039,44744,53.0577,8.97e-05,15.31954579,469.3669373647108,470.59548977222494,1 44744U 19074AH  26175.70133675  .02098653  00000+0  60293-1 0  9990,2 44744  53.0577  80.0918 0000897 176.7395 183.3611 15.31954579364690
STARLINK-1042,44747,53.0425,0.0001326,15.55001111,401.25033385548795,403.04846580872254,1 44747U 19074AL  26176.61143558  .00030507  00000+0  45227-3 0  9999,2 44747  53.0425 294.9015 0001326 119.5935 240.5207 15.55001111366838
STARLINK-1043,44748,53.0493,8e-06,15.63863824,376.454326038036,376.5624003638477,1 44748U 19074AM  26176.85476767  .00046402  00000+0  48804-3 0  9992,2 44748  53.0493  28.9692 0000080 105.6634 254.4388 15.63863824365512
STARLINK-1046,44751,53.0471,0.0005771,15.57230496,391.7674253743644,399.5857610236353,1 44751U 19074AQ  26176.84319002  .00070629  00000+0  95040-3 0  9995,2 44751  53.0471  51.5592 0005771 125.9563 234.1984 15.57230496365198
STARLINK-1047,44752,53.0701,0.0003053,15.34847048,459.28673889392485,463.46294482456324,1 44752U 19074AR  26176.73159602  .00012410  00000+0  37250-3 0  9995,2 44752  53.0701   0.3751 0003053 156.3290 203.7853 15.34847048365920
STARLINK-1048,44753,53.0446,0.0004934,15.69143328,358.02357445459893,364.674099078321,1 44753U 19074AS  26176.69155597  .00061927  00000+0  52398-3 0  9997,2 44753  53.0446   0.8523 0004934 108.4084 251.7469 15.69143328365886
STARLINK-1063,44768,53.1549,0.0002046,15.51141961,412.0011644713868,414.78025761074423,1 44768U 19074BH  26176.83228569  .00058368  00000+0  98382-3 0  9997,2 44768  53.1549  68.3444 0002046 132.7245 227.3937 15.51141961364991
STARLINK-1067,44771,53.0422,0.0002114,15.79984773,329.06553494535274,331.90193979311243,1 44771U 19074BL  26176.82323220  .00115793  00000+0  60641-3 0  9993,2 44771  53.0422  30.6687 0002114 240.7325 119.3485 15.79984773365489
STARLINK-1068,44772,53.0405,0.0002234,15.78087283,334.3603775691072,337.3601915558502,1 44772U 19074BM  26176.85046184  .00090815  00000+0  52047-3 0  9996,2 44772  53.0405   4.4431 0002234 252.7798 107.2978 15.78087283365849
STARLINK-1114,44927,53.039,0.000177,15.71342591,353.86716964498646,356.2507210096328,1 44927U 20001P   26176.91668980  .00098347  00000+0  75384-3 0  9998,2 44927  53.0390 162.4264 0001770 108.0012 273.0918 15.71342591  5913
STARLINK-1123,44930,53.1417,0.0008283,15.60756358,379.86876037859565,391.07335348570905,1 44930U 20001S   26176.84792208  .00077589  00000+0  91175-3 0  9996,2 44930  53.1417 190.9653 0008283  12.4258 347.6958 15.60756358356595
STARLINK-1094,44941,53.1503,0.0007818,15.56337184,392.9705901193911,403.56617757757704,1 44941U 20001AD  26176.85497012  .00073992  00000+0  10280-2 0  9995,2 44941  53.1503 166.5109 0007818  35.0487 325.1038 15.56337184356942
STARLINK-1122,44949,53.1526,0.0007185,15.56615677,392.5918519821362,402.3283850414373,1 44949U 20001AM  26176.67144260  .00060891  00000+0  84004-3 0  9997,2 44949  53.1526 167.9873 0007185  30.8334 329.3099 15.56615677356904
STARLINK-1080,44961,53.0438,0.000299,15.69352464,358.7351485984618,362.7650030698114,1 44961U 20001AZ  26176.58613167  .00068275  00000+0  57201-3 0  9991,2 44961  53.0438 124.2565 0002990  82.6625 277.4730 15.69352464357496
STARLINK-1090,44968,53.1464,0.0006024,15.52607884,405.0265010096391,413.2037823899591,1 44968U 20001BG  26176.83161844  .00055135  00000+0  88214-3 0  9995,2 44968  53.1464 155.4331 0006024  39.7227 320.4223 15.52607884357096
STARLINK-1132,45044,53.1482,0.0003331,15.58183104,390.66005662304724,395.17093179468884,1 45044U 20006A   26176.80962961  .00079365  00000+0  10292-2 0  9993,2 45044  53.1482  95.8856 0003331  93.9731 266.1662 15.58183104353708
STARLINK-1131,45047,53.1539,0.0005627,15.54581728,399.55281376359744,407.18472035384457,1 45047U 20006D   26176.86370185  .00065200  00000+0  96876-3 0  9999,2 45047  53.1539 128.9222 0005627  61.0509 299.1066 15.54581728353241
STARLINK-1134,45048,53.0224,0.0007342,15.61335994,378.8323772556205,388.7616011253467,1 45048U 20006E   26176.44685752  .00045195  00000+0  52410-3 0  9990,2 45048  53.0224  79.6563 0007342 134.5563 225.6050 15.61335994353870
STARLINK-1156,45054,53.155,0.0004904,15.36396691,453.4232409395745,460.12692270942716,1 45054U 20006L   26176.37150880  .00044355  00000+0  12346-2 0  9998,2 45054  53.1550 139.1280 0004904  48.5489 311.5935 15.36396691353050
STARLINK-1166,45060,53.0425,0.0005213,15.62396781,377.2125721645725,384.2593731258521,1 45060U 20006S   26176.82750705  .00078039  00000+0  86139-3 0  9995,2 45060  53.0425 110.7589 0005213  75.0850 285.0740 15.62396781353479
STARLINK-1169,45061,53.1537,0.0006031,15.39917485,442.2372462837384,450.4689462378474,1 45061U 20006T   26176.17184162  .00065693  00000+0  16215-2 0  9991,2 45061  53.1537 138.2201 0006031  29.1110 331.0230 15.39917485353053
STARLINK-1171,45062,53.0382,0.0002247,15.77056265,337.27690655994775,340.29549184566895,1 45062U 20006U   26176.73604419  .00096296  00000+0  57718-3 0  9993,2 45062  53.0382  75.1601 0002247  74.8864 285.2404 15.77056265353967
STARLINK-1133,45064,53.1539,0.0005485,15.36453309,452.8583135116678,460.3560278669147,1 45064U 20006W   26176.79829942  .00044464  00000+0  12353-2 0  9996,2 45064  53.1539 113.9086 0005485  62.7351 297.4210 15.36453309353455
STARLINK-1167,45071,53.1555,0.0004209,15.39029555,446.1041989766509,451.85126415768354,1 45071U 20006AD  26176.83642072  .00048340  00000+0  12342-2 0  9991,2 45071  53.1555 112.4767 0004209  28.6123 331.5112 15.39029555353470
STARLINK-1168,45072,53.1547,0.0004564,15.36706427,452.73759391112526,458.9756632953149,1 45072U 20006AE  26176.05975158  .00035936  00000+0  99355-3 0  9997,2 45072  53.1547 117.5386 0004564  57.5362 302.6082 15.36706427353332
STARLINK-1172,45074,53.1526,0.0004475,15.4004311,442.92817132491655,449.0357577981986,1 45074U 20006AG  26176.84722671  .00035041  00000+0  86963-3 0  9994,2 45074  53.1526 111.6242 0004475  46.4044 313.7331 15.40043110353486
STARLINK-1153,45080,53.1563,0.0005326,15.3910311,445.1242087698747,452.39621968246865,1 45080U 20006AN  26176.81865390  .00047079  00000+0  11994-2 0  9999,2 45080  53.1563 112.4620 0005326  28.3375 331.7919 15.39103110353471
STARLINK-1151,45081,53.0463,0.0003451,15.92483632,293.03219792168056,297.6382284432193,1 45081U 20006AP  26176.91668980  .00209889  27667-4  61145-3 0  9993,2 45081  53.0463  61.0415 0003451 235.3696 110.3029 15.92483632  6000
STARLINK-1185,45087,53.1555,0.0004952,15.47928638,419.4186019595336,426.15423651394576,1 45087U 20006AV  26176.79442779  .00057201  00000+0  10794-2 0  9990,2 45087  53.1555  91.5871 0004952  79.1234 281.0331 15.47928638353762
STARLINK-1183,45088,53.1552,0.0004975,15.36307043,453.64046957768187,460.44147165844697,1 45088U 20006AW  26176.49815251  .00047032  00000+0  13118-2 0  9991,2 45088  53.1552 100.1360 0004975  78.2412 281.9149 15.36307043353612
STARLINK-1152,45096,53.0337,0.0003488,15.51035021,411.33388631262096,416.0718738129526,1 45096U 20006BE  26176.83451353  .00055492  00000+0  93944-3 0  9992,2 45096  53.0337  51.4278 0003488 148.1713 211.9507 15.51035021354305
STARLINK-1184,45098,53.05,0.0005226,15.15054643,517.2072824506049,524.4180646494005,1 45098U 20006BG  26176.55606125  .00020989  00000+0  11219-2 0  9999,2 45098  53.0500 116.4004 0005226  86.3223 273.8368 15.15054643353367
STARLINK-1193,45100,53.046,0.0004015,15.69748078,356.91257941456934,362.32299650930236,1 45100U 20006BJ  26176.86473095  .00058188  00000+0  48082-3 0  9996,2 45100  53.0460  60.6619 0004015  41.4676 318.6644 15.69748078354173
STARLINK-1143,45179,53.0297,0.0007073,15.96968785,278.1229032681349,287.5455131392591,1 45179U 20012B   26176.91668980  .00321256  52784-4  73017-3 0  9990,2 45179  53.0297 148.2296 0007073  56.3579 247.1881 15.96968785  6032
STARLINK-1202,45183,53.1537,0.0003261,15.36189885,455.15942598939,459.6175557145243,1 45183U 20012F   26176.51036022  .00038151  00000+0  10716-2 0  9991,2 45183  53.1537 256.8524 0003261 327.1472  32.9328 15.36189885351489
STARLINK-1216,45185,53.1555,0.0003385,15.36579052,453.92085879930437,458.5477281649919,1 45185U 20012H   26176.61564272  .00041016  00000+0  11365-2 0  9992,2 45185  53.1555 256.1752 0003385 322.7068  37.3700 15.36579052351444
STARLINK-1225,45187,53.156,0.0003788,15.36598194,453.5886960750822,458.7663727663594,1 45187U 20012K   26176.61405817  .00041181  00000+0  11403-2 0  9999,2 45187  53.1560 256.6442 0003788 327.9095  32.1678 15.36598194351486
STARLINK-1230,45189,53.155,0.000342,15.36414267,454.3854337418761,459.06047795167524,1 45189U 20012M   26176.49692100  .00042132  00000+0  11732-2 0  9992,2 45189  53.1550 257.2825 0003420 325.4968  34.5813 15.36414267348698
